FAUNA                   
1 43052U 17071R   19042.95084316  .00003224  00000-0  87527-4 0  9996
2 43052  51.6399 311.3260 0003059  78.8293 281.3035 15.40675994 66519
CORVUS BC3              
1 43118U 18004H   19043.17329004  .00000628  00000-0  30087-4 0  9991
2 43118  97.5030 110.8597 0009907 344.0152  16.0770 15.22628312 60221
MICROMAS-2A             
1 43131U 18004W   19043.47109224  .00001654  00000-0  72012-4 0  9993
2 43131  97.5048 111.5881 0008937 346.1619  13.9372 15.23634013 60299
CICERO 7                
1 43143U 18004AJ  19043.18092894  .00001146  00000-0  50508-4 0  9990
2 43143  97.5039 111.4972 0007398 359.8423   0.2810 15.23859216 60263
GOMX-4B                 
1 43196U 18015E   19043.43154674  .00000099  00000-0  70198-5 0  9997
2 43196  97.3718 172.9259 0019964  34.8691 325.3849 15.23805243 57116
GOMX-4A                 
1 43197U 18015F   19043.36684899  .00000338  00000-0  16863-4 0  9991
2 43197  97.3733 172.8757 0020472  36.6958  26.6578 15.23902412 57114
1KUNS-PF                
1 43466U 98067NP  19043.00552723  .00013583  00000-0  16086-3 0  9998
2 43466  51.6377 255.2441 0000337 141.7288 218.3730 15.61570728 43093
UBAKUSAT                
1 43467U 98067NQ  19043.00198223  .00008795  00000-0  11352-3 0  9990
2 43467  51.6374 256.7167 0001756 308.5350  51.5485 15.59838121 43085
BATSU-CS1 (IRAZU)       
1 43468U 98067NR  19043.54254033  .00017416  00000-0  19406-3 0  9990
2 43468  51.6373 251.3264 0000534 162.8641 197.2371 15.62926627143188
CUBERRT                 
1 43546U 98067NU  19042.85380082  .00007695  00000-0  99139-4 0  9994
2 43546  51.6375 259.4680 0005188  21.1414 338.9793 15.60102106 33167
TEMPEST-D               
1 43547U 98067NV  19043.49518057  .00003228  00000-0  51536-4 0  9998
2 43547  51.6379 258.4976 0005923  19.3237 340.7978 15.56494977 32911
RAINCUBE                
1 43548U 98067NW  19043.20121786  .00008761  00000-0  11941-3 0  9999
2 43548  51.6368 258.7854 0005436  27.9135 332.2148 15.58379435 33334
HALOSAT                 
1 43549U 98067NX  19043.07311236  .00007771  00000-0  10673-3 0  9997
2 43549  51.6371 259.4326 0005420  29.9537 330.1764 15.58364097 32879
ENDUROSAT ONE           
1 43551U 98067NZ  19043.06370232  .00011148  00000-0  14534-3 0  9993
2 43551  51.6379 258.6196 0005771  37.5559 322.5836 15.59243876 33298
EQUISAT                 
1 43552U 98067PA  19042.97113765  .00008794  00000-0  11865-3 0  9996
2 43552  51.6389 259.5064 0006163  36.0724 324.0684 15.58645638 33231
AEROCUBE 12A            
1 43556U 18046C   19042.94344220  .00001228  00000-0  56652-4 0  9997
2 43556  51.6428 304.4592 0008162 341.4901  18.5781 15.28287822 32175
AEROCUBE 12B            
1 43557U 18046D   19042.94840224  .00000708  00000-0  38162-4 0  9991
2 43557  51.6429 304.4905 0008207 341.7872  18.2813 15.28211005 32123
UITMSAT-1               
1 43589U 98067PD  19043.03307314  .00009564  00000-0  12954-3 0  9995
2 43589  51.6363 259.9056 0005538  46.3579 313.7871 15.58419666 28973
MAYA-1                  
1 43590U 98067PE  19042.00394508  .00010082  00000-0  13617-3 0  9998
2 43590  51.6362 265.0340 0005680  43.1488 316.9949 15.58423262 28743
BHUTAN-1                
1 43591U 98067PF  19042.96080078  .00010236  00000-0  13779-3 0  9998
2 43591  51.6375 260.1779 0005801  47.0858 313.0621 15.58492671 28890
SIRIUSSAT-1             
1 43595U 98067PG  19043.14746526  .00008874  00000-0  12301-3 0  9995
2 43595  51.6370 259.9181 0002965   1.4265 358.6735 15.57908524 28097
SIRIUSSAT-2             
1 43596U 98067PH  19042.90816692  .00008205  00000-0  11492-3 0  9999
2 43596  51.6382 261.3388 0003601   1.2296 358.8705 15.57746027 28050
TANUSHA-3               
1 43597U 98067PJ  19043.57324428  .00011635  00000-0  15579-3 0  9996
2 43597  51.6364 257.4929 0003121  21.5289 338.5835 15.58486318 28168
SURFSAT                 
1 43614U 18070B   19042.72272888  .00002209  00000-0  61094-4 0  9991
2 43614  93.0386 311.2125 0019312  77.6240 282.7173 15.36926152 22909
CP7 (DAVE)              
1 43615U 18070C   19043.17939631  .00002171  00000-0  60097-4 0  9998
2 43615  93.0387 311.4023 0019304  75.9905 284.3492 15.36890959 22974
ELFIN-B                 
1 43616U 18070D   19042.90123366  .00003345  00000-0  91440-4 0  9999
2 43616  93.0346 311.2298 0020339  79.5374 280.8169 15.37228675 22931
ELFIN-A                 
1 43617U 18070E   19042.89794464  .00003397  00000-0  92832-4 0  9994
2 43617  93.0404 311.3449 0019337  76.7148 283.6260 15.37262979 22938
DEBRISSAT-1             
1 43621U 98067PM  19043.01816737  .00337614  00000-0  13395-2 0  9993
2 43621  51.6379 250.0843 0005166 240.8551 119.1769 15.85235554 23208
CUBEBEL-1 (BSUSAT-1)    
1 43666U 18083E   19043.47545868  .00000892  00000-0  48128-4 0  9995
2 43666  97.5310  68.7539 0013753 267.4193 199.0587 15.17298502 16142
DEBRISSAT-2             
1 43680U 98067PR  19043.19296081  .00013978  00000-0  18684-3 0  9992
2 43680  51.6401 259.4698 0003218  46.9537 313.1724 15.58334851 36846
CICERO 10               
1 43690U 18088A   19042.66038164  .00000870  00000-0  39167-4 0  9992
2 43690  85.0363  42.1114 0013723 320.7192  39.3052 15.19396558 14067
IRVINE01                
1 43693U 18088D   19042.71324305  .00002030  00000-0  90039-4 0  9991
2 43693  85.0346  41.9252 0016655 304.0583  55.9076 15.20800925 14067
PROXIMA I               
1 43694U 18088E   19043.47503143  .00000966  00000-0  41461-4 0  9996
2 43694  85.0308  41.3336 0017365 290.8618  69.0764 15.21144134 14180
PROXIMA II              
1 43696U 18088G   19043.47464652  .00000974  00000-0  41824-4 0  9991
2 43696  85.0308  41.3343 0017402 290.8039  69.1338 15.21150309 14188
FACSAT-1                
1 43721U 18096C   19043.51486375  .00001377  00000-0  56372-4 0  9992
2 43721  97.4748 113.5246 0019602  57.7422 302.5712 15.25897830 11498
CENTAURI-2              
1 43722U 18096D   19043.51001828  .00001634  00000-0  66066-4 0  9996
2 43722  97.4748 113.5318 0019689  58.5544 301.7615 15.26024985 11484
CORVUS-BC 4             
1 43767U 18099K   19043.18647148 -.00000127  00000-0 -64530-5 0  9995
2 43767  97.7580 116.5655 0012458  31.7657 328.4313 14.94513276 10527
SHIELDS 1               
1 43850U 18104B   19042.80467939  .00000042  00000-0  00000-0 0  9992
2 43850  85.0325 140.3085 0017420  78.5328 281.7865 15.20959214  8736
STF-1                   
1 43852U 18104D   19042.56652611  .00000041  00000-0  00000+0 0  9998
2 43852  85.0370 140.5416 0017233  89.7349 270.5886 15.20330691  8693
LUME 1                  
1 43908U 18111AJ  19043.55374322  .00001008  00000-0  44158-4 0  9999
2 43908  97.2987 312.1971 0023560  77.3687 283.0183 15.24045647  7231
AOBA VELOX-IV           
1 43940U 19003J   19043.45403618  .00001409  00000-0  61795-4 0  9997
2 43940  97.2945 105.0238 0025555 153.5047 325.3812 15.23322552  3865
CATSAT-2                
1 44029U 98067PV  19043.02360646  .00006928  00000-0  11246-3 0  9995
2 44029  51.6389 263.5971 0005143  43.5358 316.6038 15.53962885  1861
DELPHINI                
1 44030U 98067PW  19043.02362419  .00007830  00000-0  12611-3 0  9997
2 44030  51.6388 263.5976 0004836  44.3515 315.7862 15.53966637  1830
UNITE                   
1 44031U 98067PX  19043.02350205  .00005037  00000-0  83791-4 0  9993
2 44031  51.6387 263.5961 0003419  43.5584 316.5676 15.53955887  1834
TECHEDSAT 8             
1 44032U 98067PY  19042.82938265  .00013123  00000-0  20435-3 0  9999
2 44032  51.6386 264.5499 0003318  46.9669 313.1599 15.54234793  1788
CATSAT-1                
1 44033U 98067PZ  19042.25172586  .00005931  00000-0  97281-4 0  9995
2 44033  51.6388 267.4419 0005095  42.2071 317.9311 15.53979450  1650
